CZ-4B R/B               
1 28415U 04035C   25280.03138854  .00009923  00000+0  38299-3 0  9997
2 28415  97.3706 311.3025 0035500 150.2521 210.0746 15.25884334156452
CZ-2C R/B               
1 28480U 04046B   25279.50160028  .00000356  00000+0  14830-3 0  9995
2 28480  98.1921 199.0810 0138324 250.7349 107.8826 14.26897408 86514
ARIANE 5 R/B            
1 28499U 04049H   25280.00908167  .00001937  00000+0  22067-3 0  9996
2 28499  98.2485  77.9267 0085849 128.6015 232.2927 14.84802318122983
CZ-2D R/B               
1 28738U 05024B   25280.00945759  .00031333  00000+0  58443-3 0  9994
2 28738  97.3691 285.9021 0004175 201.4335 158.6742 15.48739113115919
ALOS (DAICHI)           
1 28931U 06002A   25279.82173168  .00002451  00000+0  42496-3 0  9991
2 28931  98.0968 231.8390 0002347  76.3434 283.8032 14.69149571 50888
H-2A R/B                
1 28932U 06002B   25279.82056851  .00010143  00000+0  55769-3 0  9995
2 28932  98.2261  49.2277 0056967  44.7257 315.8545 15.12897329 71148
RESURS-DK 1             
1 29228U 06021A   25279.94108642  .00004392  00000+0  26407-3 0  9990
2 29228  69.9321 274.3915 0006109 317.7728  42.2966 15.11606296 64283
CZ-4B R/B               
1 29507U 06046C   25280.01128976  .00006212  00000+0  33168-3 0  9994
2 29507  97.5840 320.3354 0036253  80.1718 280.3604 15.14915237 36765
CZ-2C R/B               
1 31114U 07010B   25279.29507389  .00000212  00000+0  11629-3 0  9992
2 31114  98.3921  35.3615 0059475  24.2488 336.1468 14.20172294957807
COSMO-SKYMED 1          
1 31598U 07023A   25280.00950310  .00004679  00000+0  43223-3 0  9995
2 31598  97.8882 104.9950 0001513  85.7392 274.4001 14.95092408991922
COSMOS 2428             
1 31792U 07029A   25279.97607288 -.00000168  00000+0 -64414-4 0  9991
2 31792  70.9413 166.0381 0002409 179.3080 180.8045 14.12901047942387
SL-16 R/B               
1 31793U 07029B   25280.01758846  .00000304  00000+0  18232-3 0  9992
2 31793  70.9740 135.4088 0002469 265.4054 244.5825 14.14800295943637
KORONAS-FOTON           
1 33504U 09003A   25279.89694179  .00015746  00000+0  40638-3 0  9991
2 33504  82.4292  75.2360 0011612 354.5352   5.5764 15.38955991922055
CZ-2C R/B               
1 37731U 11030B   25279.82329690  .00001996  00000+0  26073-3 0  9995
2 37731  97.8289 235.4730 0054413 129.8995 261.5491 14.80559495767323
H-2A R/B                
1 38341U 12025E   25279.80279034  .00004651  00000+0  43592-3 0  9998
2 38341  98.4471 229.9546 0047448  95.6750 264.9880 14.93731229725237
SHIJIAN-16 (SJ-16)      
1 39358U 13057A   25280.00912474  .00001616  00000+0  16325-3 0  9991
2 39358  74.9696 115.8820 0016233 127.9984 232.2673 14.91656699648583
SL-4 R/B                
1 39679U 14021B   25279.96625099  .00016627  00000+0  42152-3 0  9991
2 39679  51.6106   4.4819 0106946 264.7925  94.0846 15.34114513632631
ALOS-2                  
1 39766U 14029A   25279.98941119  .00002930  00000+0  39904-3 0  9995
2 39766  97.9232  15.7871 0001437  96.1195 264.0180 14.79475064614144
YAOGAN-29               
1 41038U 15069A   25280.01462032  .00000744  00000+0  98787-4 0  9999
2 41038  98.0297 302.9446 0002783 109.9601 250.1912 14.82773344533102
ASTRO-H (HITOMI)        
1 41337U 16012A   25279.68555152  .00004595  00000+0  27958-3 0  9996
2 41337  31.0000 269.4479 0010281 225.2808 134.6993 15.08735709528942
HXMT (HUIYAN)           
1 42758U 17034A   25280.03521101  .00007637  00000+0  40632-3 0  9991
2 42758  43.0132 149.4852 0033676 342.3413  17.6261 15.15161384459218
CZ-2C R/B               
1 43521U 18054D   25279.40084929  .00065663  00000+0  72292-3 0  9994
2 43521  35.1364 272.8532 0030816 221.5287 138.3100 15.61357405404486
SAOCOM 1A               
1 43641U 18076A   25279.97145485  .00000788  00000+0  10552-3 0  9996
2 43641  97.8892 105.3536 0001309  88.0142 272.1221 14.82164256378590
H-2A R/B                
1 43682U 18084L   25279.97303204  .00023314  00000+0  69777-3 0  9998
2 43682  98.8828 100.3896 0029554 193.4774 166.5678 15.34128914382151
SAOCOM 1B               
1 46265U 20059A   25280.00274410  .00000773  00000+0  10372-3 0  9996
2 46265  97.8881 104.4893 0001357  91.4761 268.6608 14.82146863275989
CSS (TIANHE)            
1 48274U 21035A   25279.81454823  .00033057  00000+0  38213-3 0  9993
2 48274  41.4649  63.5152 0002547 201.8943 158.1787 15.61177807253574
COSMOS 2550             
1 48865U 21056A   25279.88829613 -.00000167  00000+0  74595-6 0  9995
2 48865  67.1406 146.2082 0008386 269.5509  90.4684 15.33825867239879
CZ-2C R/B               
1 52794U 22058K   25279.66021272  .00024175  00000+0  50059-3 0  9995
2 52794  50.1935  24.4586 0053013 278.3602  81.1356 15.44074648186250
GSLV R/B                
1 54149U 22138AN  25279.82526797  .00004816  00000+0  43028-3 0  9998
2 54149  87.3836 217.8598 0021861 358.8575   1.2601 14.95535697160921
XRISM                   
1 57800U 23137A   25279.99679942  .00007954  00000+0  48057-3 0  9997
2 57800  31.0021 196.1269 0008630 293.4088  66.5642 15.09312946114537
ACS3                    
1 59588U 24077B   25279.85626622 -.00002707  00000+0 -24947-2 0  9992
2 59588  97.3751 250.1753 0024519 332.8587  27.1289 13.81836935 72891
